{"type": "FeatureCollection", "features": [ {"type": "Feature", "properties": {"norad_id": 35217, "name": "FENGYUN 1C DEB", "group": "fengyun-1c-debris", "lat": -67.1342942029072, "lon": -80.24021166797502, "alt_km": 853.7721954804083, "timestamp": "2025-12-02T17:49:12.315663+00:00", "meta": {"OBJECT_NAME": "FENGYUN 1C DEB", "OBJECT_ID": "1999-025DPZ", "EPOCH": "2025-11-30T00:41:53.658528", "MEAN_MOTION": 13.57395411, "ECCENTRICITY": 0.03039914, "INCLINATION": 101.8745, "RA_OF_ASC_NODE": 246.5595, "ARG_OF_PERICENTER": 325.2799, "MEAN_ANOMALY": 32.8819, "EPHEMERIS_TYPE": 0, "CLASSIFICATION_TYPE": "U", "NORAD_CAT_ID": 35217, "ELEMENT_SET_NO": 999, "REV_AT_EPOCH": 61047, "BSTAR": 0.0036509681, "MEAN_MOTION_DOT": 3.466e-05, "MEAN_MOTION_DDOT": 0}, "tle": {"line1": "1 35217U 99025DPZ 25334.02909327  .00003466  00000+0  36510-2 0  9997", "line2": "2 35217 101.8745 246.5595 0303991 325.2799  32.8819 13.57395411610472"}}, "geometry": {"type": "Point", "coordinates": [-80.24021166797502, -67.1342942029072]}}, {"type": "Feature", "properties": {"norad_id": 35220, "name": "FENGYUN 1C DEB", "group": "fengyun-1c-debris", "lat": -64.35436363449324, "lon": 65.86984117858412, "alt_km": 801.7195034750503, "timestamp": "2025-12-02T17:49:12.315673+00:00", "meta": {"OBJECT_NAME": "FENGYUN 1C DEB", "OBJECT_ID": "1999-025DQC", "EPOCH": "2025-11-29T04:01:45.336576", "MEAN_MOTION": 14.22417293, "ECCENTRICITY": 0.00430148, "INCLINATION": 99.0273, "RA_OF_ASC_NODE": 42.8731, "ARG_OF_PERICENTER": 347.7836, "MEAN_ANOMALY": 12.2294, "EPHEMERIS_TYPE": 0, "CLASSIFICATION_TYPE": "U", "NORAD_CAT_ID": 35220, "ELEMENT_SET_NO": 999, "REV_AT_EPOCH": 62990, "BSTAR": 0.0016155953, "MEAN_MOTION_DOT": 3.587e-05, "MEAN_MOTION_DDOT": 0}, "tle": {"line1": "1 35220U 99025DQC 25333.16788584  .00003587  00000+0  16156-2 0  9993", "line2": "2 35220  99.0273  42.8731 0043014 347.7836  12.2294 14.22417293629900"}}, "geometry": {"type": "Point", "coordinates": [65.86984117858412, -64.35436363449324]}}, {"type": "Feature", "properties": {"norad_id": 35223, "name": "FENGYUN 1C DEB", "group": "fengyun-1c-debris", "lat": 17.710523016023195, "lon": -44.98125750856817, "alt_km": 516.7776049176773, "timestamp": "2025-12-02T17:49:12.315683+00:00", "meta": {"OBJECT_NAME": "FENGYUN 1C DEB", "OBJECT_ID": "1999-025DQF", "EPOCH": "2025-11-30T04:26:29.555520", "MEAN_MOTION": 14.88592881, "ECCENTRICITY": 0.01303122, "INCLINATION": 98.9708, "RA_OF_ASC_NODE": 315.0165, "ARG_OF_PERICENTER": 6.6362, "MEAN_ANOMALY": 353.6538, "EPHEMERIS_TYPE": 0, "CLASSIFICATION_TYPE": "U", "NORAD_CAT_ID": 35223, "ELEMENT_SET_NO": 999, "REV_AT_EPOCH": 93695, "BSTAR": 0.0010792794, "MEAN_MOTION_DOT": 0.00011714, "MEAN_MOTION_DDOT": 0}, "tle": {"line1": "1 35223U 99025DQF 25334.18506430  .00011714  00000+0  10793-2 0  9999", "line2": "2 35223  98.9708 315.0165 0130312   6.6362 353.6538 14.88592881936951"}}, "geometry": {"type": "Point", "coordinates": [-44.98125750856817, 17.710523016023195]}}, {"type": "Feature", "properties": {"norad_id": 35229, "name": "FENGYUN 1C DEB", "group": "fengyun-1c-debris", "lat": 74.80633789778238, "lon": 22.299122459537955, "alt_km": 719.3677829781091, "timestamp": "2025-12-02T17:49:12.315693+00:00", "meta": {"OBJECT_NAME": "FENGYUN 1C DEB", "OBJECT_ID": "1999-025DQM", "EPOCH": "2025-12-02T10:53:02.570208", "MEAN_MOTION": 14.59759705, "ECCENTRICITY": 0.0047395, "INCLINATION": 98.4598, "RA_OF_ASC_NODE": 55.2366, "ARG_OF_PERICENTER": 244.9664, "MEAN_ANOMALY": 114.661, "EPHEMERIS_TYPE": 0, "CLASSIFICATION_TYPE": "U", "NORAD_CAT_ID": 35229, "ELEMENT_SET_NO": 999, "REV_AT_EPOCH": 64356, "BSTAR": 0.0066058, "MEAN_MOTION_DOT": 0.00032123, "MEAN_MOTION_DDOT": 0}, "tle": {"line1": "1 35229U 99025DQM 25336.45350197  .00032123  00000+0  66058-2 0  9996", "line2": "2 35229  98.4598  55.2366 0047395 244.9664 114.6610 14.59759705643561"}}, "geometry": {"type": "Point", "coordinates": [22.299122459537955, 74.80633789778238]}}, {"type": "Feature", "properties": {"norad_id": 35231, "name": "FENGYUN 1C DEB", "group": "fengyun-1c-debris", "lat": -67.1272354366713, "lon": 178.80057305868155, "alt_km": 870.7905053551012, "timestamp": "2025-12-02T17:49:12.315703+00:00", "meta": {"OBJECT_NAME": "FENGYUN 1C DEB", "OBJECT_ID": "1999-025DQP", "EPOCH": "2025-12-01T13:29:19.986432", "MEAN_MOTION": 14.14526436, "ECCENTRICITY": 0.00379402, "INCLINATION": 98.7221, "RA_OF_ASC_NODE": 18.9876, "ARG_OF_PERICENTER": 116.1393, "MEAN_ANOMALY": 244.3691, "EPHEMERIS_TYPE": 0, "CLASSIFICATION_TYPE": "U", "NORAD_CAT_ID": 35231, "ELEMENT_SET_NO": 999, "REV_AT_EPOCH": 91344, "BSTAR": 3.0838637e-05, "MEAN_MOTION_DOT": 1.7e-07, "MEAN_MOTION_DDOT": 0}, "tle": {"line1": "1 35231U 99025DQP 25335.56203688  .00000017  00000+0  30839-4 0  9999", "line2": "2 35231  98.7221  18.9876 0037940 116.1393 244.3691 14.14526436913447"}}, "geometry": {"type": "Point", "coordinates": [178.80057305868155, -67.1272354366713]}}, {"type": "Feature", "properties": {"norad_id": 35233, "name": "FENGYUN 1C DEB", "group": "fengyun-1c-debris", "lat": 63.641303934236255, "lon": 57.44597537608147, "alt_km": 767.1137769777315, "timestamp": "2025-12-02T17:49:12.315712+00:00", "meta": {"OBJECT_NAME": "FENGYUN 1C DEB", "OBJECT_ID": "1999-025DQR", "EPOCH": "2025-11-29T12:57:02.668608", "MEAN_MOTION": 14.41620526, "ECCENTRICITY": 0.00411297, "INCLINATION": 98.7712, "RA_OF_ASC_NODE": 72.3131, "ARG_OF_PERICENTER": 300.6155, "MEAN_ANOMALY": 71.0123, "EPHEMERIS_TYPE": 0, "CLASSIFICATION_TYPE": "U", "NORAD_CAT_ID": 35233, "ELEMENT_SET_NO": 999, "REV_AT_EPOCH": 90986, "BSTAR": 0.0016467683, "MEAN_MOTION_DOT": 5.371e-05, "MEAN_MOTION_DDOT": 0}, "tle": {"line1": "1 35233U 99025DQR 25333.53961422  .00005371  00000+0  16468-2 0  9991", "line2": "2 35233  98.7712  72.3131 0041129 300.6155  71.0123 14.41620526909863"}}, "geometry": {"type": "Point", "coordinates": [57.44597537608147, 63.641303934236255]}}, {"type": "Feature", "properties": {"norad_id": 35234, "name": "FENGYUN 1C DEB", "group": "fengyun-1c-debris", "lat": 56.32555151179798, "lon": -7.433773272979687, "alt_km": 707.8815615455123, "timestamp": "2025-12-02T17:49:12.315722+00:00", "meta": {"OBJECT_NAME": "FENGYUN 1C DEB", "OBJECT_ID": "1999-025DQS", "EPOCH": "2025-12-02T07:43:39.038304", "MEAN_MOTION": 14.65448526, "ECCENTRICITY": 0.00997, "INCLINATION": 98.0686, "RA_OF_ASC_NODE": 4.4463, "ARG_OF_PERICENTER": 295.7424, "MEAN_ANOMALY": 63.3515, "EPHEMERIS_TYPE": 0, "CLASSIFICATION_TYPE": "U", "NORAD_CAT_ID": 35234, "ELEMENT_SET_NO": 999, "REV_AT_EPOCH": 94203, "BSTAR": 0.00080975, "MEAN_MOTION_DOT": 4.664e-05, "MEAN_MOTION_DDOT": 0}, "tle": {"line1": "1 35234U 99025DQS 25336.32197961  .00004664  00000+0  80975-3 0  9990", "line2": "2 35234  98.0686   4.4463 0099700 295.7424  63.3515 14.65448526942031"}}, "geometry": {"type": "Point", "coordinates": [-7.433773272979687, 56.32555151179798]}}, {"type": "Feature", "properties": {"norad_id": 35239, "name": "FENGYUN 1C DEB", "group": "fengyun-1c-debris", "lat": -57.847868884855586, "lon": 152.84826495730417, "alt_km": 1021.8695136607985, "timestamp": "2025-12-02T17:49:12.315732+00:00", "meta": {"OBJECT_NAME": "FENGYUN 1C DEB", "OBJECT_ID": "1999-025DQX", "EPOCH": "2025-11-29T09:25:46.263648", "MEAN_MOTION": 13.69178243, "ECCENTRICITY": 0.02300242, "INCLINATION": 99.2661, "RA_OF_ASC_NODE": 134.5723, "ARG_OF_PERICENTER": 45.1841, "MEAN_ANOMALY": 316.7752, "EPHEMERIS_TYPE": 0, "CLASSIFICATION_TYPE": "U", "NORAD_CAT_ID": 35239, "ELEMENT_SET_NO": 999, "REV_AT_EPOCH": 57948, "BSTAR": 0.00061296182, "MEAN_MOTION_DOT": 5.98e-06, "MEAN_MOTION_DDOT": 0}, "tle": {"line1": "1 35239U 99025DQX 25333.39289657  .00000598  00000+0  61296-3 0  9990", "line2": "2 35239  99.2661 134.5723 0230024  45.1841 316.7752 13.69178243579484"}}, "geometry": {"type": "Point", "coordinates": [152.84826495730417, -57.847868884855586]}}, {"type": "Feature", "properties": {"norad_id": 35240, "name": "FENGYUN 1C DEB", "group": "fengyun-1c-debris", "lat": -7.916977876539939, "lon": -60.132671715505154, "alt_km": 850.937436441548, "timestamp": "2025-12-02T17:49:12.315742+00:00", "meta": {"OBJECT_NAME": "FENGYUN 1C DEB", "OBJECT_ID": "1999-025DQY", "EPOCH": "2025-12-01T08:06:41.001120", "MEAN_MOTION": 14.23152586, "ECCENTRICITY": 0.00455865, "INCLINATION": 99.3488, "RA_OF_ASC_NODE": 297.0642, "ARG_OF_PERICENTER": 184.8902, "MEAN_ANOMALY": 175.1834, "EPHEMERIS_TYPE": 0, "CLASSIFICATION_TYPE": "U", "NORAD_CAT_ID": 35240, "ELEMENT_SET_NO": 999, "REV_AT_EPOCH": 93002, "BSTAR": 0.0020953333, "MEAN_MOTION_DOT": 4.737e-05, "MEAN_MOTION_DDOT": 0}, "tle": {"line1": "1 35240U 99025DQY 25335.33797455  .00004737  00000+0  20953-2 0  9991", "line2": "2 35240  99.3488 297.0642 0045586 184.8902 175.1834 14.23152586930027"}}, "geometry": {"type": "Point", "coordinates": [-60.132671715505154, -7.916977876539939]}}, {"type": "Feature", "properties": {"norad_id": 35241, "name": "FENGYUN 1C DEB", "group": "fengyun-1c-debris", "lat": -16.450263963063865, "lon": -91.098808773062, "alt_km": 918.767228385409, "timestamp": "2025-12-02T17:49:12.315752+00:00", "meta": {"OBJECT_NAME": "FENGYUN 1C DEB", "OBJECT_ID": "1999-025DQZ", "EPOCH": "2025-11-30T05:56:44.334240", "MEAN_MOTION": 14.01843685, "ECCENTRICITY": 0.01367336, "INCLINATION": 98.628, "RA_OF_ASC_NODE": 263.9706, "ARG_OF_PERICENTER": 244.1586, "MEAN_ANOMALY": 114.5426, "EPHEMERIS_TYPE": 0, "CLASSIFICATION_TYPE": "U", "NORAD_CAT_ID": 35241, "ELEMENT_SET_NO": 999, "REV_AT_EPOCH": 87431, "BSTAR": 0.001716208, "MEAN_MOTION_DOT": 2.791e-05, "MEAN_MOTION_DDOT": 0}, "tle": {"line1": "1 35241U 99025DQZ 25334.24773535  .00002791  00000+0  17162-2 0  9990", "line2": "2 35241  98.6280 263.9706 0136733 244.1586 114.5426 14.01843685874312"}}, "geometry": {"type": "Point", "coordinates": [-91.098808773062, -16.450263963063865]}}]}